[
    {
        "links": {
            "self": "http://www.neowsapp.com/rest/v1/neo/2002340?api_key=aBU7hC4CuILQ1n1BEth7q6zH4ISNUjHrUkMBGgDP,aBU7hC4CuILQ1n1BEth7q6zH4ISNUjHrUkMBGgDP"
        },
        "id": "2002340",
        "neo_reference_id": "2002340",
        "name": "2340 Hathor (1976 UA)",
        "name_limited": "Hathor",
        "designation": "2340",
        "nasa_jpl_url": "http://ssd.jpl.nasa.gov/sbdb.cgi?sstr=2002340",
        "absolute_magnitude_h": 20.2,
        "estimated_diameter": {
            "kilometers": {
                "estimated_diameter_min": 0.2424124811,
                "estimated_diameter_max": 0.5420507863
            },
            "meters": {
                "estimated_diameter_min": 242.4124811008,
                "estimated_diameter_max": 542.0507863358
            },
            "miles": {
                "estimated_diameter_min": 0.1506280858,
                "estimated_diameter_max": 0.3368146392
            },
            "feet": {
                "estimated_diameter_min": 795.3165644948,
                "estimated_diameter_max": 1778.3819018419
            }
        },
        "is_potentially_hazardous_asteroid": true,
        "close_approach_data": {
            "close_approach_date": "2086-10-21",
            "close_approach_date_full": "2086-Oct-21 22:42",
            "epoch_date_close_approach": 3686078520000,
            "relative_velocity": {
                "kilometers_per_second": "13.65861941",
                "kilometers_per_hour": "49171.0298759806",
                "miles_per_hour": "30552.9657582169"
            },
            "miss_distance": {
                "astronomical": "0.0049609207",
                "lunar": "1.9297981523",
                "kilometers": "742143.169958909",
                "miles": "461146.3821705842"
            },
            "orbiting_body": "Moon"
        },
        "orbital_data": {
            "orbit_id": "61",
            "orbit_determination_date": "2021-05-24 18:47:10",
            "first_observation_date": "1976-10-25",
            "last_observation_date": "2019-01-24",
            "data_arc_in_days": 15431,
            "observations_used": 454,
            "orbit_uncertainty": "0",
            "minimum_orbit_intersection": ".0068831",
            "jupiter_tisserand_invariant": "6.883",
            "epoch_osculation": "2459600.5",
            "eccentricity": ".449850930122026",
            "semi_major_axis": ".8437172906245873",
            "inclination": "5.859655894544813",
            "ascending_node_longitude": "211.3146607793337",
            "orbital_period": "283.0700039174034",
            "perihelion_distance": ".4641702826770809",
            "perihelion_argument": "40.0767799082648",
            "aphelion_distance": "1.223264298572094",
            "perihelion_time": "2459709.175606161504",
            "mean_anomaly": "221.7896008877113",
            "mean_motion": "1.271770215911128",
            "equinox": "J2000",
            "orbit_class": {
                "orbit_class_type": "ATE",
                "orbit_class_description": "Near-Earth asteroid orbits similar to that of 2062 Aten",
                "orbit_class_range": "a (semi-major axis) < 1.0 AU; q (perihelion) > 0.983 AU"
            }
        },
        "is_sentry_object": false
    },
    {
        "links": {
            "self": "http://www.neowsapp.com/rest/v1/neo/2002368?api_key=aBU7hC4CuILQ1n1BEth7q6zH4ISNUjHrUkMBGgDP,aBU7hC4CuILQ1n1BEth7q6zH4ISNUjHrUkMBGgDP"
        },
        "id": "2002368",
        "neo_reference_id": "2002368",
        "name": "2368 Beltrovata (1977 RA)",
        "name_limited": "Beltrovata",
        "designation": "2368",
        "nasa_jpl_url": "http://ssd.jpl.nasa.gov/sbdb.cgi?sstr=2002368",
        "absolute_magnitude_h": 15.09,
        "estimated_diameter": {
            "kilometers": {
                "estimated_diameter_min": 2.5500868786,
                "estimated_diameter_max": 5.702167609
            },
            "meters": {
                "estimated_diameter_min": 2550.0868785694,
                "estimated_diameter_max": 5702.1676090113
            },
            "miles": {
                "estimated_diameter_min": 1.5845500338,
                "estimated_diameter_max": 3.5431615894
            },
            "feet": {
                "estimated_diameter_min": 8366.4270346855,
                "estimated_diameter_max": 18707.8995783487
            }
        },
        "is_potentially_hazardous_asteroid": false,
        "close_approach_data": {
            "close_approach_date": "1922-08-18",
            "close_approach_date_full": "1922-Aug-18 16:15",
            "epoch_date_close_approach": -1494920700000,
            "relative_velocity": {
                "kilometers_per_second": "3.3888343699",
                "kilometers_per_hour": "12199.8037317679",
                "miles_per_hour": "7580.4836021088"
            },
            "miss_distance": {
                "astronomical": "0.2385646982",
                "lunar": "92.8016675998",
                "kilometers": "35688770.707912834",
                "miles": "22175973.8043277492"
            },
            "orbiting_body": "Earth"
        },
        "orbital_data": {
            "orbit_id": "290",
            "orbit_determination_date": "2021-12-04 04:53:17",
            "first_observation_date": "1977-09-04",
            "last_observation_date": "2021-12-03",
            "data_arc_in_days": 16161,
            "observations_used": 1341,
            "orbit_uncertainty": "0",
            "minimum_orbit_intersection": ".234462",
            "jupiter_tisserand_invariant": "3.625",
            "epoch_osculation": "2459600.5",
            "eccentricity": ".4132962921382502",
            "semi_major_axis": "2.105609445837216",
            "inclination": "5.222179041590762",
            "ascending_node_longitude": "287.3301146800056",
            "orbital_period": "1116.002473493905",
            "perihelion_distance": "1.235368869181419",
            "perihelion_argument": "43.06330892795874",
            "aphelion_distance": "2.975850022493014",
            "perihelion_time": "2460109.063826863740",
            "mean_anomaly": "195.9475162292763",
            "mean_motion": ".3225799301975884",
            "equinox": "J2000",
            "orbit_class": {
                "orbit_class_type": "AMO",
                "orbit_class_description": "Near-Earth asteroid orbits similar to that of 1221 Amor",
                "orbit_class_range": "1.017 AU < q (perihelion) < 1.3 AU"
            }
        },
        "is_sentry_object": false
    },
    {
        "links": {
            "self": "http://www.neowsapp.com/rest/v1/neo/2002608?api_key=aBU7hC4CuILQ1n1BEth7q6zH4ISNUjHrUkMBGgDP,aBU7hC4CuILQ1n1BEth7q6zH4ISNUjHrUkMBGgDP"
        },
        "id": "2002608",
        "neo_reference_id": "2002608",
        "name": "2608 Seneca (1978 DA)",
        "name_limited": "Seneca",
        "designation": "2608",
        "nasa_jpl_url": "http://ssd.jpl.nasa.gov/sbdb.cgi?sstr=2002608",
        "absolute_magnitude_h": 17.48,
        "estimated_diameter": {
            "kilometers": {
                "estimated_diameter_min": 0.8483107619,
                "estimated_diameter_max": 1.8968805296
            },
            "meters": {
                "estimated_diameter_min": 848.3107618858,
                "estimated_diameter_max": 1896.8805296212
            },
            "miles": {
                "estimated_diameter_min": 0.5271157064,
                "estimated_diameter_max": 1.1786665516
            },
            "feet": {
                "estimated_diameter_min": 2783.1718800254,
                "estimated_diameter_max": 6223.3615168026
            }
        },
        "is_potentially_hazardous_asteroid": false,
        "close_approach_data": {
            "close_approach_date": "1978-03-15",
            "close_approach_date_full": "1978-Mar-15 10:10",
            "epoch_date_close_approach": 258804600000,
            "relative_velocity": {
                "kilometers_per_second": "13.1504477711",
                "kilometers_per_hour": "47341.6119759218",
                "miles_per_hour": "29416.2366191499"
            },
            "miss_distance": {
                "astronomical": "0.0900396382",
                "lunar": "35.0254192598",
                "kilometers": "13469738.090290634",
                "miles": "8369707.1408293892"
            },
            "orbiting_body": "Earth"
        },
        "orbital_data": {
            "orbit_id": "21",
            "orbit_determination_date": "2021-04-12 14:00:48",
            "first_observation_date": "1978-02-17",
            "last_observation_date": "2021-01-05",
            "data_arc_in_days": 15663,
            "observations_used": 74,
            "orbit_uncertainty": "1",
            "minimum_orbit_intersection": ".133471",
            "jupiter_tisserand_invariant": "3.172",
            "epoch_osculation": "2459600.5",
            "eccentricity": ".5707186851402991",
            "semi_major_axis": "2.516662470924538",
            "inclination": "14.67226503648221",
            "ascending_node_longitude": "167.3322785187027",
            "orbital_period": "1458.263098819461",
            "perihelion_distance": "1.08035617457655",
            "perihelion_argument": "37.37262847377202",
            "aphelion_distance": "3.952968767272527",
            "perihelion_time": "2459486.005246030414",
            "mean_anomaly": "28.26520911241533",
            "mean_motion": ".2468690322695805",
            "equinox": "J2000",
            "orbit_class": {
                "orbit_class_type": "AMO",
                "orbit_class_description": "Near-Earth asteroid orbits similar to that of 1221 Amor",
                "orbit_class_range": "1.017 AU < q (perihelion) < 1.3 AU"
            }
        },
        "is_sentry_object": false
    }
]